STARLINK-1483_new
1 15743C 20038P   21326.13732796  .00004340  00000-0  29075-3 0  3269
2 15743  53.0548  78.1303 0001307  75.3464 222.1148 15.06395745    18
STARLINK-1483_old
1 25743C 20038P   21325.16631660  .00004676  00000-0  31336-3 0  3253
2 25743  53.0549  82.4889 0001358  74.8179 353.9229 15.06385612    14
